2026-134A               
1 69538U 26134A   26194.17661650  .00002682  00000+0  17125-3 0  9997
2 69538  97.7006 264.3833 0015929 177.3314 182.8003 15.09451639  4237
2026-134B               
1 69539U 26134B   26194.04114334  .00002782  00000+0  17675-3 0  9997
2 69539  97.6979 264.2453 0015998 180.2919 179.8303 15.09607553  4207
2026-134C               
1 69540U 26134C   26194.04055771  .00002690  00000+0  17090-3 0  9997
2 69540  97.6986 264.2482 0015479 181.4206 178.6981 15.09639430  4203
2026-134D               
1 69541U 26134D   26194.17205853  .00002759  00000+0  17486-3 0  9995
2 69541  97.7025 264.3963 0016556 180.8405 179.2799 15.09698095  4223
2026-134E               
1 69542U 26134E   26194.17165211  .00002664  00000+0  16886-3 0  9997
2 69542  97.7044 264.4035 0016254 181.4797 178.6386 15.09719453  4229
2026-134F               
1 69543U 26134F   26194.17080325  .00002644  00000+0  16748-3 0  9995
2 69543  97.6997 264.3881 0015565 183.1513 176.9620 15.09764757  4222
2026-134G               
1 69544U 26134G   26194.30179177  .00002462  00000+0  15586-3 0  9992
2 69544  97.7041 264.5387 0016008 183.5919 176.5197 15.09849518  4240
2026-134H               
1 69545U 26134H   26194.03547750  .00002882  00000+0  18143-3 0  9997
2 69545  97.7025 264.2689 0015823 185.7695 174.3354 15.09915965  4199
STARLINK-37880          
1 69546U 26135A   26194.25003472 -.00026195  00000+0 -48155-3 0  9992
2 69546  97.2843 222.5269 0000189 133.8264 148.4697 15.49191835  5491
STARLINK-37881          
1 69547U 26135B   26194.25003472 -.00025610  00000+0 -47113-3 0  9997
2 69547  97.2845 222.6181 0001311  63.4988  76.2396 15.49165914  5490
STARLINK-37265          
1 69548U 26135C   26194.25003472 -.02503431  00000+0 -37889-1 0  9999
2 69548  97.2848 222.6926 0001581  92.0423 211.6710 15.58400571  5498
STARLINK-37871          
1 69549U 26135D   26194.25003472 -.01686136  00000+0 -31571-1 0  9995
2 69549  97.2835 222.6062 0001846  80.8184  35.1478 15.51798948  5490
STARLINK-37865          
1 69550U 26135E   26194.25003472 -.01270824  00000+0 -23573-1 0  9993
2 69550  97.2935 222.6199 0001912  71.7274  72.1576 15.51700035  5497
STARLINK-37862          
1 69551U 26135F   26194.25003472 -.01039350  00000+0 -14567-1 0  9994
2 69551  97.2838 222.6730 0001558 104.3848 163.4370 15.59191203  5492
STARLINK-37861          
1 69552U 26135G   26194.25003472 -.02592659  00000+0 -50473-1 0  9998
2 69552  97.2836 222.6489 0001596  71.4888 129.9679 15.51076976  5492
STARLINK-37859          
1 69553U 26135H   26194.25003472 -.01736713  00000+0 -31311-1 0  9999
2 69553  97.2839 222.6633 0001662  77.9669 155.3341 15.52943735  5495
STARLINK-37860          
1 69554U 26135J   26194.25003472 -.02523570  00000+0 -41344-1 0  9993
2 69554  97.2845 222.6977 0001849 122.5355 190.8890 15.56324495  5493
STARLINK-37858          
1 69555U 26135K   26194.25003472 -.02463637  00000+0 -41770-1 0  9994
2 69555  97.2851 222.6868 0001857  91.0159 195.5508 15.55302706  5499
STARLINK-37927          
1 69556U 26135L   26194.25003472 -.00658289  00000+0 -12951-1 0  9991
2 69556  97.2838 222.6407 0001322  65.8182 121.7592 15.49615039  5499
STARLINK-37929          
1 69557U 26135M   26194.25003472 -.00031080  00000+0 -57169-3 0  9998
2 69557  97.2841 222.5980 0001561  92.0432 358.7547 15.49206049  5493
STARLINK-37954          
1 69558U 26135N   26194.25003472 -.00014957  00000+0 -27374-3 0  9998
2 69558  97.2844 222.6027 0000764  83.4414  14.1798 15.49203644  5497
STARLINK-37958          
1 69559U 26135P   26194.24007413 -.00362535  00000+0 -43350-2 0  9996
2 69559  97.2825 222.7309 0002537  21.7759 338.3606 15.62088979  4370
STARLINK-37950          
1 69560U 26135Q   26194.25003472 -.02489716  00000+0 -42146-1 0  9994
2 69560  97.2841 222.6968 0001255  92.0066 220.8642 15.55395602  5493
STARLINK-37952          
1 69561U 26135R   26194.25003472 -.00025758  00000+0 -47355-3 0  9994
2 69561  97.2840 222.6503 0001527  69.3352 145.1315 15.49184537  5497
STARLINK-37935          
1 69562U 26135S   26194.25003472 -.00032354  00000+0 -59531-3 0  9994
2 69562  97.2842 222.6053 0001672  90.1071  17.1442 15.49204732  5490
STARLINK-37936          
1 69563U 26135T   26194.25003472 -.00030558  00000+0 -56181-3 0  9997
2 69563  97.2840 222.6399 0001694  83.3618 101.8313 15.49217029  5498
STARLINK-37932          
1 69564U 26135U   26194.25003472 -.02406582  00000+0 -39188-1 0  9990
2 69564  97.2841 222.7353 0001184  74.4015 325.8220 15.56303120  5498
STARLINK-37916          
1 69565U 26135V   26194.25003472 -.02383401  00000+0 -43123-1 0  9999
2 69565  97.2839 222.6984 0001555  87.4816 227.1594 15.53404172  5494
STARLINK-37909          
1 69566U 26135W   26194.25003472 -.02699115  00000+0 -36441-1 0  9997
2 69566  97.2836 222.7794 0002145  79.7986  78.0553 15.61678722  5491
STARLINK-37934          
1 69567U 26135X   26194.12787239 -.00345207  00000+0 -60303-2 0  9997
2 69567  97.2840 222.5744 0001130  30.4167 329.7151 15.51855035  4366
STARLINK-37938          
1 69568U 26135Y   26194.25003472 -.00040638  00000+0 -74888-3 0  9996
2 69568  97.2837 222.6425 0001213  97.1188  95.4555 15.49208864  5494
STARLINK-37924          
1 69569U 26135Z   26194.25003472 -.02416466  00000+0 -43013-1 0  9999
2 69569  97.2841 222.7375 0001146  89.5734 317.8082 15.53910818  5504
SHIJIAN-31 (SJ-31)      
1 69570U 26136A   26193.98560255 -.00000460  00000+0  00000+0 0  9995
2 69570  63.4865 353.4225 6940140 171.8353 212.2967  1.92227794   582
CZ-3B R/B               
1 69571U 26136B   26193.79498036  .00377764 -15616-6  55613-3 0  9996
2 69571  63.4312 350.9647 7259124 171.4997 216.3948  2.37752219   620
GUOWANG OBJECT A        
1 69572U 26137A   26193.89246529 -.00000143  00000+0  24502-5 0  9990
2 69572  49.9997 153.0717 0012495 311.3863  48.5960 13.89812741  3591
GUOWANG OBJECT B        
1 69573U 26137B   26190.65385973 -.00000214  00000+0 -55136-4 0  9995
2 69573  50.0016 165.9303 0011859 298.8434  61.1273 13.89803849  3155
GUOWANG OBJECT C        
1 69574U 26137C   26193.88847439 -.00000180  00000+0 -27480-4 0  9997
2 69574  49.9967 153.0345 0011896 311.4365  48.5511 13.89814739  3602
GUOWANG OBJECT D        
1 69575U 26137D   26190.65162700 -.00000168  00000+0 -17667-4 0  9993
2 69575  49.9953 165.9027 0011086 299.2996  60.6794 13.89827781  3150
GUOWANG OBJECT E        
1 69576U 26137E   26193.02348711 -.00000204  00000+0 -46563-4 0  9994
2 69576  50.0038 156.4799 0011224 310.0552  49.9361 13.89824941  3484
GUOWANG OBJECT F        
1 69577U 26137F   26192.30363530 -.00000204  00000+0 -46815-4 0  9991
2 69577  50.0028 159.3340 0010834 307.7048  52.2867 13.89809360  3382
GUOWANG OBJECT G        
1 69578U 26137G   26192.30278168 -.00000142  00000+0  35461-5 0  9990
2 69578  49.9952 159.3085 0010806 307.5258  52.4657 13.89795025  3383
GUOWANG OBJECT H        
1 69579U 26137H   26191.00768142 -.00000175  00000+0 -23862-4 0  9991
2 69579  50.0012 164.4679 0010249 306.3680  53.6272 13.89776278  3203
GUOWANG OBJECT J        
1 69580U 26137J   26178.27848690  .00000022  00000+0  13174-3 0  9997
2 69580  49.9961 215.0979 0011832 257.3150 102.6427 13.91997107  1436
CZ-12 R/B               
1 69581U 26137K   26194.27991700 -.00000112  00000+0  22245-4 0  9998
2 69581  49.9888 147.7098 0077440 203.1403 156.6010 14.11694334  3691
CENTISPACE-1 GROUP 05 O*
1 69582U 26138A   26193.98796889 -.00000065  00000+0  44881-4 0  9995
2 69582  55.1388 185.9028 0011274 339.5645  20.4877 14.15470900  3670
CENTISPACE-1 GROUP 05 O*
1 69583U 26138B   26193.49037940 -.00000178  00000+0 -12217-4 0  9992
2 69583  55.1381 187.7094 0010208 338.8919  21.1632 14.15650579  3601
CENTISPACE-1 GROUP 05 O*
1 69584U 26138C   26193.48886013 -.00000223  00000+0 -35132-4 0  9997
2 69584  55.1387 187.7101 0010131 340.4978  19.5607 14.15734235  3601
CENTISPACE-1 GROUP 05 O*
1 69585U 26138D   26193.97990538 -.00000314  00000+0 -81047-4 0  9997
2 69585  55.1385 185.8593 0009789 340.9309  19.1298 14.15919675  3676
CENTISPACE-1 GROUP 05 O*
1 69586U 26138E   26193.97869604 -.00000314  00000+0 -81159-4 0  9991
2 69586  55.1377 185.8600 0009500 341.3569  18.7056 14.15986721  3674
CENTISPACE-1 GROUP 05 O*
1 69587U 26138F   26193.97992150 -.00000292  00000+0 -69905-4 0  9995
2 69587  55.1382 185.8680 0009436 345.5018  14.5684 14.15909909  3676
CENTISPACE-1 GROUP 05 O*
1 69588U 26138G   26193.41218649 -.00000375  00000+0 -11167-3 0  9997
2 69588  55.1383 187.9363 0008629 344.0005  16.0696 14.16073930  3590
SPACEMOBILE-008         
1 69589U 26139A   26194.23693320 -.00000117  00000+0  10367-4 0  9998
2 69589  52.9945 144.2981 0004990  51.8250 308.3190 15.12800584  3927
SPACEMOBILE-009         
1 69590U 26139B   26194.30482759 -.00000104  00000+0  11165-4 0  9993
2 69590  52.9936 144.0042 0005238  47.8586 312.2849 15.12693917  3934
SPACEMOBILE-010         
1 69591U 26139C   26194.24165291 -.00000028  00000+0  15486-4 0  9991
2 69591  52.9943 144.3248 0005156  39.4417 320.6949 15.12525408  3936
KUIPER-00423            
1 69592U 26140A   26194.23394405  .00016542  00000+0  43554-3 0  9997
2 69592  51.8810 272.5520 0013392 262.0186  97.9282 15.38589054  5248
KUIPER-00428            
1 69593U 26140B   26193.62020925  .00012306  00000+0  34550-3 0  9993
2 69593  51.8810 275.9284 0008045  21.5732 338.5592 15.36916079  5143
KUIPER-00481            
1 69594U 26140C   26194.24441100  .00015722  00000+0  42312-3 0  9995
2 69594  51.8770 272.6133 0011043 272.0180  87.9542 15.37981514  5246
KUIPER-00490            
1 69595U 26140D   26194.18912357  .00013576  00000+0  36791-3 0  9995
2 69595  51.8781 272.9869 0006592 334.3592  25.7068 15.37929787  5236
KUIPER-00493            
1 69596U 26140E   26193.62503321  .00012643  00000+0  35783-3 0  9995
2 69596  51.8809 275.9590 0007699  28.7780 331.3630 15.36640125  5140
KUIPER-00496            
1 69597U 26140F   26194.23149376  .00012305  00000+0  37542-3 0  9990
2 69597  51.8783 273.2628 0010558  45.3816 314.8029 15.34275470  5231
